{"fetched_at":"2026-03-29T16:36:15Z","count":15609,"tles":[{"name":"ORBCOMM FM116","line1":"1 41189U 15081L   26087.82767841  .00000655  00000+0  17508-3 0  9993","line2":"2 41189  47.0020 290.5495 0001307  45.4223 314.6769 14.58766209547205","category":"Other"}]}